[{"OBJECT_NAME":"HAWK-6A","OBJECT_ID":"2023-011D","EPOCH":"2026-03-28T01:04:32.923200","MEAN_MOTION":15.22128436,"ECCENTRICITY":0.00030709,"INCLINATION":40.4987,"RA_OF_ASC_NODE":103.5427,"ARG_OF_PERICENTER":195.8659,"MEAN_ANOMALY":164.2055,"EPHEMERIS_TYPE":0,"CLASSIFICATION_TYPE":"U","NORAD_CAT_ID":55327,"ELEMENT_SET_NO":999,"REV_AT_EPOCH":17548,"BSTAR":0.00026480562,"MEAN_MOTION_DOT":6.007e-5,"MEAN_MOTION_DDOT":0},{"OBJECT_NAME":"HAWK-7A","OBJECT_ID":"2023-054P","EPOCH":"2026-03-28T13:40:46.201152","MEAN_MOTION":15.26460019,"ECCENTRICITY":0.00024436,"INCLINATION":97.2808,"RA_OF_ASC_NODE":336.959,"ARG_OF_PERICENTER":2.2773,"MEAN_ANOMALY":357.8476,"EPHEMERIS_TYPE":0,"CLASSIFICATION_TYPE":"U","NORAD_CAT_ID":56191,"ELEMENT_SET_NO":999,"REV_AT_EPOCH":16472,"BSTAR":0.00028203454,"MEAN_MOTION_DOT":7.283e-5,"MEAN_MOTION_DDOT":0},{"OBJECT_NAME":"HAWK-7B","OBJECT_ID":"2023-054R","EPOCH":"2026-03-28T13:40:39.232128","MEAN_MOTION":15.26463661,"ECCENTRICITY":0.00021826,"INCLINATION":97.2838,"RA_OF_ASC_NODE":335.193,"ARG_OF_PERICENTER":23.3328,"MEAN_ANOMALY":336.801,"EPHEMERIS_TYPE":0,"CLASSIFICATION_TYPE":"U","NORAD_CAT_ID":56193,"ELEMENT_SET_NO":999,"REV_AT_EPOCH":16472,"BSTAR":0.00028515395,"MEAN_MOTION_DOT":7.365e-5,"MEAN_MOTION_DDOT":0},{"OBJECT_NAME":"HAWK-7C","OBJECT_ID":"2023-054Y","EPOCH":"2026-03-28T13:40:29.195040","MEAN_MOTION":15.26463103,"ECCENTRICITY":0.00018689,"INCLINATION":97.2813,"RA_OF_ASC_NODE":335.9876,"ARG_OF_PERICENTER":10.1626,"MEAN_ANOMALY":349.9651,"EPHEMERIS_TYPE":0,"CLASSIFICATION_TYPE":"U","NORAD_CAT_ID":56200,"ELEMENT_SET_NO":999,"REV_AT_EPOCH":16472,"BSTAR":0.00028363374,"MEAN_MOTION_DOT":7.325e-5,"MEAN_MOTION_DDOT":0}]
