HAWK-6A                 
1 55327U 23011D   26087.04482550  .00006007  00000+0  26481-3 0  9996
2 55327  40.4987 103.5427 0003070 195.8659 164.2055 15.22128436175483
HAWK-7A                 
1 56191U 23054P   26087.56997918  .00007283  00000+0  28203-3 0  9990
2 56191  97.2808 336.9590 0002443   2.2773 357.8476 15.26460019164721
HAWK-7B                 
1 56193U 23054R   26087.56989852  .00007365  00000+0  28515-3 0  9997
2 56193  97.2838 335.1930 0002182  23.3328 336.8010 15.26463661164722
HAWK-7C                 
1 56200U 23054Y   26087.56978235  .00007325  00000+0  28363-3 0  9996
2 56200  97.2813 335.9876 0001868  10.1626 349.9651 15.26463103164723
